[{"OBJECT_NAME":"STARLINK-31252","OBJECT_ID":"2024-041K","EPOCH":"2026-03-09T11:38:42.256320","MEAN_MOTION":15.2756861,"ECCENTRICITY":9.925e-5,"INCLINATION":43.0013,"RA_OF_ASC_NODE":228.669,"ARG_OF_PERICENTER":273.3131,"MEAN_ANOMALY":86.7607,"EPHEMERIS_TYPE":0,"CLASSIFICATION_TYPE":"U","NORAD_CAT_ID":59083,"ELEMENT_SET_NO":999,"REV_AT_EPOCH":11524,"BSTAR":-2.6340129e-5,"MEAN_MOTION_DOT":-9.86e-6,"MEAN_MOTION_DDOT":0},{"OBJECT_NAME":"OBJECT B","OBJECT_ID":"2024-203B","EPOCH":"2026-03-09T23:52:52.928256","MEAN_MOTION":15.27506959,"ECCENTRICITY":0.00103904,"INCLINATION":97.4268,"RA_OF_ASC_NODE":139.5887,"ARG_OF_PERICENTER":321.1475,"MEAN_ANOMALY":38.9016,"EPHEMERIS_TYPE":0,"CLASSIFICATION_TYPE":"U","NORAD_CAT_ID":61870,"ELEMENT_SET_NO":999,"REV_AT_EPOCH":7381,"BSTAR":0.00063263842,"MEAN_MOTION_DOT":0.00016997,"MEAN_MOTION_DDOT":0}]
